start=new Date('2022-01-02T00:00:00.000Z').valueOf();
sats=[{"MEAN_MOTION":"15.06393258","PERIOD":"95.593","BSTAR":"0.00009359100000","TIME_SYSTEM":"UTC","RCS_SIZE":"LARGE","ELEMENT_SET_NO":"999","INCLINATION":"53.0551","REF_FRAME":"TEME","MEAN_ANOMALY":"287.1393","TLE_LINE2":"2 45068  53.0551 289.2755 0001604  72.9772 287.1393 15.06393258106324","NORAD_CAT_ID":"45068","ARG_OF_PERICENTER":"72.9772","CENTER_NAME":"EARTH","GP_ID":"192867264","CLASSIFICATION_TYPE":"U","OBJECT_ID":"2020-006AA","EPOCH":"2021-12-31T23:31:16.867776","MEAN_MOTION_DDOT":"0.0000000000000","OBJECT_NAME":"STARLINK-1161","MEAN_ELEMENT_THEORY":"SGP4","SITE":"AFETR","LAUNCH_DATE":"2020-01-29","ECCENTRICITY":"0.00016040","DECAY_DATE":null,"COUNTRY_CODE":"US","APOAPSIS":"548.345","OBJECT_TYPE":"PAYLOAD","FILE":"3255244","SEMIMAJOR_AXIS":"6925.369","EPHEMERIS_TYPE":"0","TLE_LINE1":"1 45068U 20006AA  21365.98005634  .00001113  00000-0  93591-4 0  9990","MEAN_MOTION_DOT":"0.00001113","PERIAPSIS":"546.123","REV_AT_EPOCH":"10632","RA_OF_ASC_NODE":"289.2755"},{"NORAD_CAT_ID":"45071","MEAN_ANOMALY":"305.7639","TLE_LINE2":"2 45071  53.0555 284.9023 0001684  54.3507 305.7639 15.06392077106474","CENTER_NAME":"EARTH","GP_ID":"192892942","ARG_OF_PERICENTER":"54.3507","CLASSIFICATION_TYPE":"U","EPOCH":"2022-01-01T22:52:32.071008","MEAN_MOTION_DDOT":"0.0000000000000","OBJECT_ID":"2020-006AD","MEAN_MOTION":"15.06392077","PERIOD":"95.593","BSTAR":"0.00006917000000","TIME_SYSTEM":"UTC","ELEMENT_SET_NO":"999","RCS_SIZE":"LARGE","REF_FRAME":"TEME","INCLINATION":"53.0555","COUNTRY_CODE":"US","APOAPSIS":"548.404","OBJECT_TYPE":"PAYLOAD","DECAY_DATE":null,"SEMIMAJOR_AXIS":"6925.373","FILE":"3255246","TLE_LINE1":"1 45071U 20006AD  22001.95314897  .00000749  00000-0  69170-4 0  9993","EPHEMERIS_TYPE":"0","RA_OF_ASC_NODE":"284.9023","MEAN_MOTION_DOT":"0.00000749","PERIAPSIS":"546.072","REV_AT_EPOCH":"10647","OBJECT_NAME":"STARLINK-1167","SITE":"AFETR","MEAN_ELEMENT_THEORY":"SGP4","LAUNCH_DATE":"2020-01-29","ECCENTRICITY":"0.00016840"},{"PERIOD":"95.592","BSTAR":"0.00017360000000","TIME_SYSTEM":"UTC","MEAN_MOTION":"15.06401281","INCLINATION":"53.0535","REF_FRAME":"TEME","RCS_SIZE":"LARGE","ELEMENT_SET_NO":"999","ARG_OF_PERICENTER":"55.9587","CENTER_NAME":"EARTH","GP_ID":"192891690","MEAN_ANOMALY":"304.1563","TLE_LINE2":"2 45072  53.0535 284.8749 0001701  55.9587 304.1563 15.06401281106479","NORAD_CAT_ID":"45072","OBJECT_ID":"2020-006AE","EPOCH":"2022-01-01T22:57:49.874400","MEAN_MOTION_DDOT":"0.0000000000000","CLASSIFICATION_TYPE":"U","MEAN_ELEMENT_THEORY":"SGP4","SITE":"AFETR","OBJECT_NAME":"STARLINK-1168","ECCENTRICITY":"0.00017010","LAUNCH_DATE":"2020-01-29","FILE":"3255246","SEMIMAJOR_AXIS":"6925.345","DECAY_DATE":null,"COUNTRY_CODE":"US","APOAPSIS":"548.388","OBJECT_TYPE":"PAYLOAD","MEAN_MOTION_DOT":"0.00002305","REV_AT_EPOCH":"10647","PERIAPSIS":"546.032","RA_OF_ASC_NODE":"284.8749","EPHEMERIS_TYPE":"0","TLE_LINE1":"1 45072U 20006AE  22001.95682725  .00002305  00000-0  17360-3 0  9995"},{"MEAN_MOTION_DDOT":"0.0000000000000","EPOCH":"2022-01-01T14:01:45.383520","OBJECT_ID":"2020-006AF","CLASSIFICATION_TYPE":"U","GP_ID":"192867023","CENTER_NAME":"EARTH","ARG_OF_PERICENTER":"60.8438","NORAD_CAT_ID":"45073","TLE_LINE2":"2 45073  53.0545 286.5438 0001273  60.8438 299.2678 15.06401237106415","MEAN_ANOMALY":"299.2678","REF_FRAME":"TEME","INCLINATION":"53.0545","ELEMENT_SET_NO":"999","RCS_SIZE":"LARGE","TIME_SYSTEM":"UTC","PERIOD":"95.592","BSTAR":"-0.00007650500000","MEAN_MOTION":"15.06401237","RA_OF_ASC_NODE":"286.5438","PERIAPSIS":"546.328","REV_AT_EPOCH":"10641","MEAN_MOTION_DOT":"-0.00001421","TLE_LINE1":"1 45073U 20006AF  22001.58455305 -.00001421  00000-0 -76505-4 0  9994","EPHEMERIS_TYPE":"0","SEMIMAJOR_AXIS":"6925.345","FILE":"3255244","OBJECT_TYPE":"PAYLOAD","APOAPSIS":"548.091","COUNTRY_CODE":"US","DECAY_DATE":null,"ECCENTRICITY":"0.00012730","LAUNCH_DATE":"2020-01-29","SITE":"AFETR","MEAN_ELEMENT_THEORY":"SGP4","OBJECT_NAME":"STARLINK-1170"},{"TIME_SYSTEM":"UTC","BSTAR":"0.00016885000000","PERIOD":"95.592","MEAN_MOTION":"15.06401682","REF_FRAME":"TEME","INCLINATION":"53.0555","ELEMENT_SET_NO":"999","RCS_SIZE":"LARGE","GP_ID":"192892692","CENTER_NAME":"EARTH","ARG_OF_PERICENTER":"51.2883","NORAD_CAT_ID":"45074","TLE_LINE2":"2 45074  53.0555 285.1407 0002006  51.2883 308.8285 15.06401682106461","MEAN_ANOMALY":"308.8285","MEAN_MOTION_DDOT":"0.0000000000000","EPOCH":"2022-01-01T21:38:12.951456","OBJECT_ID":"2020-006AG","CLASSIFICATION_TYPE":"U","SITE":"AFETR","MEAN_ELEMENT_THEORY":"SGP4","OBJECT_NAME":"STARLINK-1172","ECCENTRICITY":"0.00020060","LAUNCH_DATE":"2020-01-29","SEMIMAJOR_AXIS":"6925.343","FILE":"3255246","OBJECT_TYPE":"PAYLOAD","COUNTRY_CODE":"US","APOAPSIS":"548.598","DECAY_DATE":null,"RA_OF_ASC_NODE":"285.1407","PERIAPSIS":"545.819","REV_AT_EPOCH":"10646","MEAN_MOTION_DOT":"0.00002234","TLE_LINE1":"1 45074U 20006AG  22001.90153879  .00002234  00000-0  16885-3 0  9997","EPHEMERIS_TYPE":"0"},{"RA_OF_ASC_NODE":"285.8810","MEAN_MOTION_DOT":"-0.00000303","PERIAPSIS":"545.938","REV_AT_EPOCH":"10644","TLE_LINE1":"1 45075U 20006AH  22001.73567379 -.00000303  00000-0 -14424-5 0  9999","EPHEMERIS_TYPE":"0","SEMIMAJOR_AXIS":"6925.366","FILE":"3255246","COUNTRY_CODE":"US","APOAPSIS":"548.525","OBJECT_TYPE":"PAYLOAD","DECAY_DATE":null,"ECCENTRICITY":"0.00018680","LAUNCH_DATE":"2020-01-29","SITE":"AFETR","MEAN_ELEMENT_THEORY":"SGP4","OBJECT_NAME":"STARLINK-1174","EPOCH":"2022-01-01T17:39:22.215456","MEAN_MOTION_DDOT":"0.0000000000000","OBJECT_ID":"2020-006AH","CLASSIFICATION_TYPE":"U","CENTER_NAME":"EARTH","GP_ID":"192892443","ARG_OF_PERICENTER":"59.4348","NORAD_CAT_ID":"45075","MEAN_ANOMALY":"300.6825","TLE_LINE2":"2 45075  53.0535 285.8810 0001868  59.4348 300.6825 15.06394180106448","REF_FRAME":"TEME","INCLINATION":"53.0535","ELEMENT_SET_NO":"999","RCS_SIZE":"LARGE","PERIOD":"95.593","BSTAR":"-0.00000144240000","TIME_SYSTEM":"UTC","MEAN_MOTION":"15.06394180"},{"CLASSIFICATION_TYPE":"U","MEAN_MOTION_DDOT":"0.0000000000000","EPOCH":"2022-01-01T01:54:35.968608","OBJECT_ID":"2020-006AJ","NORAD_CAT_ID":"45076","TLE_LINE2":"2 45076  53.0549 288.8166 0001890  54.4576 305.6589 15.06392211106348","MEAN_ANOMALY":"305.6589","GP_ID":"192866272","CENTER_NAME":"EARTH","ARG_OF_PERICENTER":"54.4576","ELEMENT_SET_NO":"999","RCS_SIZE":"LARGE","REF_FRAME":"TEME","INCLINATION":"53.0549","MEAN_MOTION":"15.06392211","TIME_SYSTEM":"UTC","BSTAR":"0.00005980900000","PERIOD":"95.593","TLE_LINE1":"1 45076U 20006AJ  22001.07958297  .00000609  00000-0  59809-4 0  9992","EPHEMERIS_TYPE":"0","RA_OF_ASC_NODE":"288.8166","REV_AT_EPOCH":"10634","PERIAPSIS":"545.929","MEAN_MOTION_DOT":"0.00000609","OBJECT_TYPE":"PAYLOAD","APOAPSIS":"548.546","COUNTRY_CODE":"US","DECAY_DATE":null,"SEMIMAJOR_AXIS":"6925.372","FILE":"3255244","LAUNCH_DATE":"2020-01-29","ECCENTRICITY":"0.00018900","OBJECT_NAME":"STARLINK-1180","SITE":"AFETR","MEAN_ELEMENT_THEORY":"SGP4"},{"DECAY_DATE":null,"OBJECT_TYPE":"PAYLOAD","COUNTRY_CODE":"US","APOAPSIS":"401.485","FILE":"3255246","SEMIMAJOR_AXIS":"6778.725","EPHEMERIS_TYPE":"0","TLE_LINE1":"1 45077U 20006AK  22001.92447040  .00172519  00000-0  24315-2 0  9998","PERIAPSIS":"399.695","REV_AT_EPOCH":"10701","MEAN_MOTION_DOT":"0.00172519","RA_OF_ASC_NODE":"246.5474","OBJECT_NAME":"STARLINK-1182","MEAN_ELEMENT_THEORY":"SGP4","SITE":"AFETR","LAUNCH_DATE":"2020-01-29","ECCENTRICITY":"0.00013200","TLE_LINE2":"2 45077  53.0544 246.5474 0001320  51.4560 308.6569 15.55538505107013","MEAN_ANOMALY":"308.6569","NORAD_CAT_ID":"45077","ARG_OF_PERICENTER":"51.4560","GP_ID":"192891441","CENTER_NAME":"EARTH","CLASSIFICATION_TYPE":"U","OBJECT_ID":"2020-006AK","MEAN_MOTION_DDOT":"0.0000000000000","EPOCH":"2022-01-01T22:11:14.242560","MEAN_MOTION":"15.55538505","TIME_SYSTEM":"UTC","PERIOD":"92.572","BSTAR":"0.00243150000000","RCS_SIZE":"LARGE","ELEMENT_SET_NO":"999","INCLINATION":"53.0544","REF_FRAME":"TEME"},{"NORAD_CAT_ID":"45078","MEAN_ANOMALY":"288.4742","TLE_LINE2":"2 45078  53.0558 285.7625 0001677  71.6429 288.4742 15.06385400106438","CENTER_NAME":"EARTH","GP_ID":"192892193","ARG_OF_PERICENTER":"71.6429","CLASSIFICATION_TYPE":"U","EPOCH":"2022-01-01T18:16:32.670336","MEAN_MOTION_DDOT":"0.0000000000000","OBJECT_ID":"2020-006AL","MEAN_MOTION":"15.06385400","BSTAR":"0.00008822000000","PERIOD":"95.593","TIME_SYSTEM":"UTC","ELEMENT_SET_NO":"999","RCS_SIZE":"LARGE","REF_FRAME":"TEME","INCLINATION":"53.0558","COUNTRY_CODE":"US","APOAPSIS":"548.420","OBJECT_TYPE":"PAYLOAD","DECAY_DATE":null,"SEMIMAJOR_AXIS":"6925.393","FILE":"3255246","TLE_LINE1":"1 45078U 20006AL  22001.76148924  .00001032  00000-0  88220-4 0  9998","EPHEMERIS_TYPE":"0","RA_OF_ASC_NODE":"285.7625","MEAN_MOTION_DOT":"0.00001032","PERIAPSIS":"546.097","REV_AT_EPOCH":"10643","OBJECT_NAME":"STARLINK-1177","SITE":"AFETR","MEAN_ELEMENT_THEORY":"SGP4","LAUNCH_DATE":"2020-01-29","ECCENTRICITY":"0.00016770"},{"BSTAR":"0.00006595300000","PERIOD":"95.592","TIME_SYSTEM":"UTC","MEAN_MOTION":"15.06399152","INCLINATION":"53.0542","REF_FRAME":"TEME","RCS_SIZE":"LARGE","ELEMENT_SET_NO":"999","ARG_OF_PERICENTER":"50.9438","CENTER_NAME":"EARTH","GP_ID":"192866523","MEAN_ANOMALY":"309.1735","TLE_LINE2":"2 45079  53.0542 288.2395 0002066  50.9438 309.1735 15.06399152106350","NORAD_CAT_ID":"45079","OBJECT_ID":"2020-006AM","EPOCH":"2022-01-01T05:00:21.536640","MEAN_MOTION_DDOT":"0.0000000000000","CLASSIFICATION_TYPE":"U","MEAN_ELEMENT_THEORY":"SGP4","SITE":"AFETR","OBJECT_NAME":"STARLINK-1149","ECCENTRICITY":"0.00020660","LAUNCH_DATE":"2020-01-29","FILE":"3255244","SEMIMAJOR_AXIS":"6925.351","DECAY_DATE":null,"APOAPSIS":"548.647","COUNTRY_CODE":"US","OBJECT_TYPE":"PAYLOAD","MEAN_MOTION_DOT":"0.00000701","PERIAPSIS":"545.785","REV_AT_EPOCH":"10635","RA_OF_ASC_NODE":"288.2395","EPHEMERIS_TYPE":"0","TLE_LINE1":"1 45079U 20006AM  22001.20858260  .00000701  00000-0  65953-4 0  9999"}];
